UNKNOWN                 
1 87737U 99025    22342.93665461  .00000027  00000+0  74055-4 0  9993
2 87737  99.5342 213.7171 0133609 168.4340 191.9928 13.72056628453029
UNKNOWN                 
1 87764U 76126    22341.73669619  .00004790  00000+0  96653-3 0  9994
2 87764  65.6743 245.6220 0485943 266.5644 118.6971 14.07576190462759
UNKNOWN                 
1 87771U 75052    22342.72344929  .00000065  00000+0  27273-3 0  9996
2 87771 100.6990 139.8721 0119823 335.1242  24.4126 13.19105632390037
UNKNOWN                 
1 87782U 73086    22342.98132934  .00003407  00000+0  12716-1 0  9999
2 87782 102.4167  60.9779 0068877 267.4721  91.8484 12.92109451425502
UNKNOWN                 
1 87843U 70025    22343.26085804  .00001812  00000+0  45397-2 0  9992
2 87843  99.6707 177.6354 0241276  48.3052 313.8434 13.11008838419808
UNKNOWN                 
1 87845U          22341.24160744  .00000619  00000+0  12738-2 0  9990
2 87845  98.8461 142.1807 0585937 261.4881  91.9434 12.85093590423539
UNKNOWN                 
1 87878U          22341.37770353  .00001676  00000+0  66245-3 0  9990
2 87878  99.2080  18.2651 0041672 230.5628 129.1861 14.29990340453378
UNKNOWN                 
1 87883U 99025    22341.97847728  .00000752  00000+0  28759-3 0  9990
2 87883  99.2035 244.0641 0295873 229.6143 127.8861 14.12646841416771
UNKNOWN                 
1 87884U 99025    22341.82262364  .00000182  00000+0  12597-3 0  9992
2 87884  98.6293 114.8872 0155737 286.6714  71.7409 14.04595947463747
UNKNOWN                 
1 87898U 99025    22341.93122103  .00011026  00000+0  37441-2 0  9998
2 87898  98.9039 214.2784 0127539 241.5633 117.2650 14.32306870470208
UNKNOWN                 
1 87934U          22341.89359090  .00000105  00000+0  97907-4 0  9997
2 87934  82.9384  33.0914 0030121 213.6991 269.2922 13.72845059453250
UNKNOWN                 
1 87942U          22341.94213882  .00014953  00000+0  13936-2 0  9994
2 87942  99.0956 338.6169 0131627  44.3600 346.7872 14.87959777482008
UNKNOWN                 
1 87972U 99025    22341.03380366  .00019228  00000+0  58957-2 0  9996
2 87972  98.8088 272.0488 0156155   5.4462 354.8375 14.34888071417989
UNKNOWN                 
1 87991U 77065    22343.22462000  .00002777  00000+0  56888-2 0  9998
2 87991  28.6160 179.1168 0907965 128.9582 239.5428 12.30228664387266
UNKNOWN                 
1 89003U          22339.39334913  .00000188  00000+0  75204-4 0  9992
2 89003  74.0472 237.1043 0016771 210.9400 149.0766 14.34859240850437
UNKNOWN                 
1 89005U          22342.53833202  .00001509  00000+0  40821-3 0  9993
2 89005  97.9551 239.5556 0219001 146.1289 215.4109 14.35819826375700
UNKNOWN                 
1 89029U          22342.08314239  .00002891  00000+0  38713-3 0  9995
2 89029  98.1825 203.1703 0029410 313.5479  46.3290 14.79972894487583
UNKNOWN                 
1 89037U          22341.32565938  .00003408  00000+0  19644-2 0  9990
2 89037  98.4473 289.0878 0140352  53.0677 308.3253 14.04870379367293
UNKNOWN                 
1 89048U          22338.51779663  .00053443  00000+0  67095-2 0  9998
2 89048  99.0454 254.0425 0017181  43.2573 316.9982 14.81792744921609
UNKNOWN                 
1 89067U          22341.98681922  .00019051  00000+0  55571-3 0  9998
2 89067  80.9853  69.1828 0539814  97.0265 269.2612 14.53893955422455
UNKNOWN                 
1 89074U          22341.88043104  .00003653  00000+0  41877-2 0  9993
2 89074 100.2963  25.3327 0050891 282.0850 253.3573 13.69835916438218
UNKNOWN                 
1 89101U          22343.12899916  .00000584  00000+0  18704-2 0  9996
2 89101 100.3289 305.4822 0148185  43.5813 317.6889 13.03683579411541
UNKNOWN                 
1 89123U          22341.72766490  .00005857  00000+0  26814-2 0  9993
2 89123  99.0673  87.4663 0064635 160.4191 199.9488 14.20667854370707
UNKNOWN                 
1 89132U          22343.00819328  .00002584  00000+0  23232-2 0  9990
2 89132  63.4480 237.4934 3051360 320.5769  20.7975  8.75351857228216
UNKNOWN                 
1 89135U          22341.39237473  .00004649  00000+0  21794-2 0  9993
2 89135  71.0625 120.5261 0130895 124.1264 237.2358 14.16205606465862
UNKNOWN                 
1 89142U          22343.37372349  .00215878  00000+0  16818+0 0  9999
2 89142  64.8627 252.4289 2996842  65.2498 322.9472  8.87950386 15699
UNKNOWN                 
1 89146U          22343.57674494  .00001874  00000+0  46407-3 0  9991
2 89146  98.1987 272.8381 0115938 216.8717 142.4465 14.49143248468983
UNKNOWN                 
1 89161U          22343.03977053  .00004897  00000+0  64738-3 0  9991
2 89161  97.7201   2.3679 0128058 142.0625 218.9692 14.74790131384216
UNKNOWN                 
1 89172U 81053    22338.43486724  .00003044  00000+0  72352-3 0  9992
2 89172  82.0761 148.1584 0408144 344.9411  13.9894 14.13275849621839
UNKNOWN                 
1 89177U          22342.36660173  .00000101  00000+0  92301-4 0  9997
2 89177  82.9216   4.7810 0031670 325.5577  34.3525 13.73452417911902
UNKNOWN                 
1 89183U          22343.02841801  .00000359  00000+0  36607-3 0  9998
2 89183  99.2131 265.0606 0132340 197.9589 161.6864 13.79518449455234
UNKNOWN                 
1 89184U          22343.26629207  .00006261  00000+0  19206-2 0  9992
2 89184  98.4656 178.3455 0019317 281.8085  78.0938 14.41891253332052
UNKNOWN                 
1 89195U          22342.15638627  .00003121  00000+0  13273-2 0  9997
2 89195  98.7647  49.4455 0032197 197.2374 162.7714 14.25674292370450
UNKNOWN                 
1 89206U          22342.81455111  .00004677  00000+0  18945-2 0  9996
2 89206  98.6935   7.2372 0029719 144.3600 215.9573 14.27962275328767
UNKNOWN                 
1 89213U          22343.57662351  .00000370  00000+0  27306-3 0  9992
2 89213  98.8781 253.3295 0231987 253.0668 104.4944 13.89438675299915
UNKNOWN                 
1 89218U          22341.24642993  .00001199  00000+0  11347-2 0  9996
2 89218 100.3848 172.1496 0109914 331.7645  27.7573 13.80871172441364
UNKNOWN                 
1 89251U          22340.00267968  .00008035  00000+0  62830-2 0  9990
2 89251  62.5296 299.3822 3046605   3.3179 358.3603  8.79268302273880
UNKNOWN                 
1 89255U          22343.54161223  .00001950  00000+0  25508-2 0  9993
2 89255  98.6603 247.4255 0365204   3.7041 356.6665 13.38168331347982
UNKNOWN                 
1 89261U          22340.55184509  .00000574  00000+0  19705-3 0  9994
2 89261  98.1892   8.9778 0012379 255.5377 104.4438 14.39584573375053
UNKNOWN                 
1 89281U          22342.66795774  .00013836  00000+0  35776-2 0  9992
2 89281  99.3285 124.9409 0018202 202.9241 169.0980 14.49923476475219
UNKNOWN                 
1 89304U          22339.31946565  .00003499  00000+0  13949-1 0  9993
2 89304  84.8786  10.7864 2726284 277.3510  63.2839  8.88639555339866
UNKNOWN                 
1 89314U          22342.25599735  .00003313  00000+0  79569-2 0  9990
2 89314  19.2822 298.7115 7119211 106.2402 337.1914  2.40653504 61229
UNKNOWN                 
1 89327U          22342.73335639  .00001618  00000+0  13628-2 0  9998
2 89327  82.5516 140.4829 0010217 328.3640  31.6906 13.87318389321926
UNKNOWN                 
1 89347U          22343.27471499  .00151008  00000+0  11947-1 0  9995
2 89347  86.2541  86.9647 0042105 303.0563  56.6628 14.99192308336754
UNKNOWN                 
1 89349U          22343.25095147  .00000016  00000+0  31868-4 0  9996
2 89349  90.2555 342.3777 0029924 272.9250  86.8445 12.95644558336340
UNKNOWN                 
1 89379U          22343.27192532  .00001045  00000+0  17000-2 0  9990
2 89379 100.5526 271.8469 0054968 293.6891  65.8478 13.50198666431746
UNKNOWN                 
1 89381U          22342.51411733  .00655740  00000+0  22077-1 0  9992
2 89381  98.7162 175.1097 0028643 300.2592  59.5809 15.28024256315446
UNKNOWN                 
1 89389U          22341.57810104  .00011344  00000+0  14903-2 0  9996
2 89389  74.0481  91.3821 0074053  56.3135 304.5072 14.78372781380032
UNKNOWN                 
1 89391U          22342.87390784  .00031445  00000+0  24250-2 0  9990
2 89391  97.4621 121.0515 0175010 148.5612 212.6211 14.90126735262628
UNKNOWN                 
1 89395U          22342.63382757 -.00000219  00000+0 -20057-2 0  9997
2 89395 102.3102   0.9118 0225795 200.4851 287.4382 12.01218095392630
UNKNOWN                 
1 89400U          22335.64171864 -.00000016  00000+0  00000+0 0  9999
2 89400  63.4492  79.4311 1772835 116.8353 262.4441  8.12980771314291
UNKNOWN                 
1 89403U          22343.47542218  .00000688  00000+0  23538-2 0  9995
2 89403  90.2563 340.7700 0030200 260.5311 255.7034 12.97114168335237
UNKNOWN                 
1 89453U          22343.24608081  .00037423  00000+0  18849-2 0  9992
2 89453  97.3103 139.2411 0109131 278.6250  80.2630 15.11939769342425
UNKNOWN                 
1 89460U          22343.15637514  .00001212  00000+0  24436-2 0  9999
2 89460 100.2703 124.3765 0048653  32.4013 328.0083 13.35891885286202
UNKNOWN                 
1 89483U          22341.94781556  .00022817  00000+0  22708-2 0  9999
2 89483  99.4696  51.2220 0247475 188.5977 171.0949 14.71473656335302
UNKNOWN                 
1 89484U          22343.20809260  .00012607  00000+0  73302-1 0  9995
2 89484  84.8827  69.2061 2650150 325.5453  19.8608  8.87506319256914
UNKNOWN                 
1 89490U          22342.11801185  .00006445  00000+0  28651-2 0  9990
2 89490  98.4078 301.3709 0125054 223.9426 135.1754 14.19149639323490
UNKNOWN                 
1 89492U          22340.45845416  .00000604  00000+0  43561-3 0  9991
2 89492  82.5296 234.4968 0024698 263.4678  96.3676 13.95186080413418
UNKNOWN                 
1 89493U          22342.83066254  .00002130  00000+0  12437-2 0  9994
2 89493  99.1066  24.5424 0091729 251.3697 107.7494 14.07449530308772
UNKNOWN                 
1 89494U          22341.57030938  .00001776  00000+0  10420-2 0  9990
2 89494  99.1074  23.2566 0092218 254.8881 104.2071 14.07416860308450
